[{"OBJECT_NAME":"STARLINK-6204","OBJECT_ID":"2023-064AS","EPOCH":"2026-03-09T12:19:31.298880","MEAN_MOTION":14.98347279,"ECCENTRICITY":0.00031591,"INCLINATION":70.0002,"RA_OF_ASC_NODE":105.0059,"ARG_OF_PERICENTER":272.6146,"MEAN_ANOMALY":87.4651,"EPHEMERIS_TYPE":0,"CLASSIFICATION_TYPE":"U","NORAD_CAT_ID":56488,"ELEMENT_SET_NO":999,"REV_AT_EPOCH":15620,"BSTAR":0.00020050441,"MEAN_MOTION_DOT":2.301e-5,"MEAN_MOTION_DDOT":0},{"OBJECT_NAME":"LEMUR-2-LIA-MARTIN","OBJECT_ID":"2025-052AQ","EPOCH":"2026-03-09T16:52:54.660288","MEAN_MOTION":14.96805944,"ECCENTRICITY":0.00038171,"INCLINATION":97.6996,"RA_OF_ASC_NODE":322.6614,"ARG_OF_PERICENTER":139.7155,"MEAN_ANOMALY":220.435,"EPHEMERIS_TYPE":0,"CLASSIFICATION_TYPE":"U","NORAD_CAT_ID":63248,"ELEMENT_SET_NO":999,"REV_AT_EPOCH":5379,"BSTAR":0.0006082839,"MEAN_MOTION_DOT":6.911e-5,"MEAN_MOTION_DDOT":0}]
